{"type": "FeatureCollection", "features": [ {"type": "Feature", "properties": {"norad_id": 31168, "name": "FENGYUN 1C DEB", "group": "fengyun-1c-debris", "lat": 4.931895372047671, "lon": 128.7862258976818, "alt_km": 602.5598665902407, "timestamp": "2025-12-23T09:49:07.364061+00:00", "meta": {"OBJECT_NAME": "FENGYUN 1C DEB", "OBJECT_ID": "1999-025BHW", "EPOCH": "2025-12-20T19:36:36.470592", "MEAN_MOTION": 14.67398966, "ECCENTRICITY": 0.01085271, "INCLINATION": 98.8914, "RA_OF_ASC_NODE": 126.749, "ARG_OF_PERICENTER": 38.7973, "MEAN_ANOMALY": 322.0957, "EPHEMERIS_TYPE": 0, "CLASSIFICATION_TYPE": "U", "NORAD_CAT_ID": 31168, "ELEMENT_SET_NO": 999, "REV_AT_EPOCH": 99239, "BSTAR": 0.00034126829, "MEAN_MOTION_DOT": 2.045e-05, "MEAN_MOTION_DDOT": 0}, "tle": {"line1": "1 31168U 99025BHW 25354.81708878  .00002045  00000+0  34127-3 0  9990", "line2": "2 31168  98.8914 126.7490 0108527  38.7973 322.0957 14.67398966992398"}}, "geometry": {"type": "Point", "coordinates": [128.7862258976818, 4.931895372047671]}}, {"type": "Feature", "properties": {"norad_id": 31169, "name": "FENGYUN 1C DEB", "group": "fengyun-1c-debris", "lat": 78.71015086361953, "lon": -101.78650381238444, "alt_km": 809.8339355083581, "timestamp": "2025-12-23T09:49:07.364071+00:00", "meta": {"OBJECT_NAME": "FENGYUN 1C DEB", "OBJECT_ID": "1999-025BHX", "EPOCH": "2025-12-20T00:34:09.920352", "MEAN_MOTION": 14.26515357, "ECCENTRICITY": 0.00572465, "INCLINATION": 99.1561, "RA_OF_ASC_NODE": 20.7855, "ARG_OF_PERICENTER": 356.2914, "MEAN_ANOMALY": 3.7833, "EPHEMERIS_TYPE": 0, "CLASSIFICATION_TYPE": "U", "NORAD_CAT_ID": 31169, "ELEMENT_SET_NO": 999, "REV_AT_EPOCH": 57208, "BSTAR": 0.0014006304, "MEAN_MOTION_DOT": 3.388e-05, "MEAN_MOTION_DDOT": 0}, "tle": {"line1": "1 31169U 99025BHX 25354.02372593  .00003388  00000+0  14006-2 0  9999", "line2": "2 31169  99.1561  20.7855 0057246 356.2914   3.7833 14.26515357572089"}}, "geometry": {"type": "Point", "coordinates": [-101.78650381238444, 78.71015086361953]}}, {"type": "Feature", "properties": {"norad_id": 31171, "name": "FENGYUN 1C DEB", "group": "fengyun-1c-debris", "lat": 27.719141567076598, "lon": 170.56797702416148, "alt_km": 846.8391001163045, "timestamp": "2025-12-23T09:49:07.364081+00:00", "meta": {"OBJECT_NAME": "FENGYUN 1C DEB", "OBJECT_ID": "1999-025BHZ", "EPOCH": "2025-12-21T05:31:38.282016", "MEAN_MOTION": 14.3501981, "ECCENTRICITY": 0.015338, "INCLINATION": 98.015, "RA_OF_ASC_NODE": 344.2981, "ARG_OF_PERICENTER": 290.9239, "MEAN_ANOMALY": 132.7879, "EPHEMERIS_TYPE": 0, "CLASSIFICATION_TYPE": "U", "NORAD_CAT_ID": 31171, "ELEMENT_SET_NO": 999, "REV_AT_EPOCH": 95952, "BSTAR": 0.0028332, "MEAN_MOTION_DOT": 9.187e-05, "MEAN_MOTION_DDOT": 0}, "tle": {"line1": "1 31171U 99025BHZ 25355.23030419  .00009187  00000+0  28332-2 0  9994", "line2": "2 31171  98.0150 344.2981 0153380 290.9239 132.7879 14.35019810959522"}}, "geometry": {"type": "Point", "coordinates": [170.56797702416148, 27.719141567076598]}}, {"type": "Feature", "properties": {"norad_id": 31172, "name": "FENGYUN 1C DEB", "group": "fengyun-1c-debris", "lat": -76.33150727798932, "lon": 39.11761466666336, "alt_km": 716.9544215304377, "timestamp": "2025-12-23T09:49:07.364091+00:00", "meta": {"OBJECT_NAME": "FENGYUN 1C DEB", "OBJECT_ID": "1999-025BJA", "EPOCH": "2025-12-21T06:11:02.573952", "MEAN_MOTION": 14.31521172, "ECCENTRICITY": 0.0148148, "INCLINATION": 98.4247, "RA_OF_ASC_NODE": 359.4826, "ARG_OF_PERICENTER": 243.1, "MEAN_ANOMALY": 115.498, "EPHEMERIS_TYPE": 0, "CLASSIFICATION_TYPE": "U", "NORAD_CAT_ID": 31172, "ELEMENT_SET_NO": 999, "REV_AT_EPOCH": 97748, "BSTAR": 0.00011795, "MEAN_MOTION_DOT": 3.07e-06, "MEAN_MOTION_DDOT": 0}, "tle": {"line1": "1 31172U 99025BJA 25355.25766868  .00000307  00000+0  11795-3 0  9992", "line2": "2 31172  98.4247 359.4826 0148148 243.1000 115.4980 14.31521172977483"}}, "geometry": {"type": "Point", "coordinates": [39.11761466666336, -76.33150727798932]}}, {"type": "Feature", "properties": {"norad_id": 31175, "name": "FENGYUN 1C DEB", "group": "fengyun-1c-debris", "lat": -24.552745004379247, "lon": 173.85320646057428, "alt_km": 681.2946115436298, "timestamp": "2025-12-23T09:49:07.364101+00:00", "meta": {"OBJECT_NAME": "FENGYUN 1C DEB", "OBJECT_ID": "1999-025BJD", "EPOCH": "2025-12-19T17:44:11.172480", "MEAN_MOTION": 14.6030748, "ECCENTRICITY": 0.00743604, "INCLINATION": 98.3966, "RA_OF_ASC_NODE": 354.0042, "ARG_OF_PERICENTER": 143.5954, "MEAN_ANOMALY": 217.0335, "EPHEMERIS_TYPE": 0, "CLASSIFICATION_TYPE": "U", "NORAD_CAT_ID": 31175, "ELEMENT_SET_NO": 999, "REV_AT_EPOCH": 65741, "BSTAR": 0.0024269531, "MEAN_MOTION_DOT": 0.00012157, "MEAN_MOTION_DDOT": 0}, "tle": {"line1": "1 31175U 99025BJD 25353.73901820  .00012157  00000+0  24270-2 0  9992", "line2": "2 31175  98.3966 354.0042 0074360 143.5954 217.0335 14.60307480657416"}}, "geometry": {"type": "Point", "coordinates": [173.85320646057428, -24.552745004379247]}}, {"type": "Feature", "properties": {"norad_id": 31177, "name": "FENGYUN 1C DEB", "group": "fengyun-1c-debris", "lat": 37.04433814387439, "lon": -96.89486708349835, "alt_km": 1101.333844314754, "timestamp": "2025-12-23T09:49:07.364113+00:00", "meta": {"OBJECT_NAME": "FENGYUN 1C DEB", "OBJECT_ID": "1999-025BJF", "EPOCH": "2025-12-19T17:38:35.721888", "MEAN_MOTION": 13.62390825, "ECCENTRICITY": 0.03085768, "INCLINATION": 98.7594, "RA_OF_ASC_NODE": 266.4801, "ARG_OF_PERICENTER": 295.8584, "MEAN_ANOMALY": 88.4957, "EPHEMERIS_TYPE": 0, "CLASSIFICATION_TYPE": "U", "NORAD_CAT_ID": 31177, "ELEMENT_SET_NO": 999, "REV_AT_EPOCH": 66307, "BSTAR": 0.0031990454, "MEAN_MOTION_DOT": 3.374e-05, "MEAN_MOTION_DDOT": 0}, "tle": {"line1": "1 31177U 99025BJF 25353.73513567  .00003374  00000+0  31990-2 0  9999", "line2": "2 31177  98.7594 266.4801 0308576 295.8584  88.4957 13.62390825663072"}}, "geometry": {"type": "Point", "coordinates": [-96.89486708349835, 37.04433814387439]}}, {"type": "Feature", "properties": {"norad_id": 31178, "name": "FENGYUN 1C DEB", "group": "fengyun-1c-debris", "lat": -63.99777724336797, "lon": 160.37686954788018, "alt_km": 754.7455169229243, "timestamp": "2025-12-23T09:49:07.364124+00:00", "meta": {"OBJECT_NAME": "FENGYUN 1C DEB", "OBJECT_ID": "1999-025BJG", "EPOCH": "2025-12-18T07:05:42.469152", "MEAN_MOTION": 14.22259738, "ECCENTRICITY": 0.01258717, "INCLINATION": 99.5125, "RA_OF_ASC_NODE": 354.9683, "ARG_OF_PERICENTER": 299.9049, "MEAN_ANOMALY": 58.9671, "EPHEMERIS_TYPE": 0, "CLASSIFICATION_TYPE": "U", "NORAD_CAT_ID": 31178, "ELEMENT_SET_NO": 999, "REV_AT_EPOCH": 95894, "BSTAR": 0.0016924306, "MEAN_MOTION_DOT": 4.025e-05, "MEAN_MOTION_DDOT": 0}, "tle": {"line1": "1 31178U 99025BJG 25352.29563043  .00004025  00000+0  16924-2 0  9998", "line2": "2 31178  99.5125 354.9683 0125871 299.9049  58.9671 14.22259738958941"}}, "geometry": {"type": "Point", "coordinates": [160.37686954788018, -63.99777724336797]}}, {"type": "Feature", "properties": {"norad_id": 31179, "name": "FENGYUN 1C DEB", "group": "fengyun-1c-debris", "lat": 14.085189926305056, "lon": 14.767556360626594, "alt_km": 805.6091106276708, "timestamp": "2025-12-23T09:49:07.364134+00:00", "meta": {"OBJECT_NAME": "FENGYUN 1C DEB", "OBJECT_ID": "1999-025BJH", "EPOCH": "2025-12-18T07:16:13.358496", "MEAN_MOTION": 13.91941548, "ECCENTRICITY": 0.02152306, "INCLINATION": 99.0195, "RA_OF_ASC_NODE": 12.0814, "ARG_OF_PERICENTER": 345.6132, "MEAN_ANOMALY": 13.8961, "EPHEMERIS_TYPE": 0, "CLASSIFICATION_TYPE": "U", "NORAD_CAT_ID": 31179, "ELEMENT_SET_NO": 999, "REV_AT_EPOCH": 62018, "BSTAR": 0.00082156675, "MEAN_MOTION_DOT": 1.222e-05, "MEAN_MOTION_DDOT": 0}, "tle": {"line1": "1 31179U 99025BJH 25352.30293239  .00001222  00000+0  82157-3 0  9996", "line2": "2 31179  99.0195  12.0814 0215230 345.6132  13.8961 13.91941548620189"}}, "geometry": {"type": "Point", "coordinates": [14.767556360626594, 14.085189926305056]}}, {"type": "Feature", "properties": {"norad_id": 31180, "name": "FENGYUN 1C DEB", "group": "fengyun-1c-debris", "lat": 11.344554616321524, "lon": 126.68699845413417, "alt_km": 653.175075047966, "timestamp": "2025-12-23T09:49:07.364144+00:00", "meta": {"OBJECT_NAME": "FENGYUN 1C DEB", "OBJECT_ID": "1999-025BJJ", "EPOCH": "2025-12-22T03:05:53.129760", "MEAN_MOTION": 13.70350099, "ECCENTRICITY": 0.04980059, "INCLINATION": 99.2181, "RA_OF_ASC_NODE": 127.3215, "ARG_OF_PERICENTER": 35.423, "MEAN_ANOMALY": 146.7673, "EPHEMERIS_TYPE": 0, "CLASSIFICATION_TYPE": "U", "NORAD_CAT_ID": 31180, "ELEMENT_SET_NO": 999, "REV_AT_EPOCH": 64195, "BSTAR": 0.00017414623, "MEAN_MOTION_DOT": 3.27e-06, "MEAN_MOTION_DDOT": 0}, "tle": {"line1": "1 31180U 99025BJJ 25356.12908715  .00000327  00000+0  17415-3 0  9994", "line2": "2 31180  99.2181 127.3215 0498005  35.4230 146.7673 13.70350099641955"}}, "geometry": {"type": "Point", "coordinates": [126.68699845413417, 11.344554616321524]}}, {"type": "Feature", "properties": {"norad_id": 31181, "name": "FENGYUN 1C DEB", "group": "fengyun-1c-debris", "lat": 54.40895157871248, "lon": 17.267304184031357, "alt_km": 813.5756375717247, "timestamp": "2025-12-23T09:49:07.364154+00:00", "meta": {"OBJECT_NAME": "FENGYUN 1C DEB", "OBJECT_ID": "1999-025BJK", "EPOCH": "2025-12-21T01:42:28.982592", "MEAN_MOTION": 14.11912678, "ECCENTRICITY": 0.00478932, "INCLINATION": 98.7784, "RA_OF_ASC_NODE": 27.4477, "ARG_OF_PERICENTER": 51.4256, "MEAN_ANOMALY": 7.0118, "EPHEMERIS_TYPE": 0, "CLASSIFICATION_TYPE": "U", "NORAD_CAT_ID": 31181, "ELEMENT_SET_NO": 999, "REV_AT_EPOCH": 95885, "BSTAR": 0.00060845685, "MEAN_MOTION_DOT": 1.081e-05, "MEAN_MOTION_DDOT": 0}, "tle": {"line1": "1 31181U 99025BJK 25355.07116878  .00001081  00000+0  60846-3 0  9993", "line2": "2 31181  98.7784  27.4477 0047893  51.4256   7.0118 14.11912678958856"}}, "geometry": {"type": "Point", "coordinates": [17.267304184031357, 54.40895157871248]}}]}